{
  "type": "FeatureCollection",
  "features": [
    {
      "type": "Feature",
      "properties": {
        "norad_id": 36828,
        "name": "BEIDOU-2 IGSO-1 (C06)",
        "group": "beidou",
        "lat": -51.377383503418784,
        "lon": 48.9870190470138,
        "alt_km": 35621.803762053074,
        "timestamp": "2025-12-19T14:48:36.512445+00:00",
        "meta_object_name": "BEIDOU-2 IGSO-1 (C06)",
        "meta_object_id": "2010-036A",
        "meta_epoch": "2025-12-14T21:38:21.623424",
        "meta_mean_motion": 1.00275796,
        "meta_eccentricity": 0.00512569,
        "meta_inclination": 54.2866,
        "meta_ra_of_asc_node": 164.6279,
        "meta_arg_of_pericenter": 215.8888,
        "meta_mean_anomaly": 135.7931,
        "meta_ephemeris_type": 0,
        "meta_classification_type": "U",
        "meta_norad_cat_id": 36828,
        "meta_element_set_no": 999,
        "meta_rev_at_epoch": 5624,
        "meta_bstar": 0,
        "meta_mean_motion_dot": -2.4e-07,
        "meta_mean_motion_ddot": 0,
        "tle_line1": "1 36828U 10036A   25348.90163916 -.00000024  00000+0  00000+0 0  9999",
        "tle_line2": "2 36828  54.2866 164.6279 0051256 215.8888 135.7931  1.00275796 56247"
      },
      "geometry": {
        "type": "Point",
        "coordinates": [
          48.9870190470138,
          -51.377383503418784
        ]
      }
    },
    {
      "type": "Feature",
      "properties": {
        "norad_id": 37210,
        "name": "BEIDOU-2 G4 (C04)",
        "group": "beidou",
        "lat": 2.112328104935057,
        "lon": 110.58897975780681,
        "alt_km": 35824.810576518525,
        "timestamp": "2025-12-19T14:48:36.512469+00:00",
        "meta_object_name": "BEIDOU-2 G4 (C04)",
        "meta_object_id": "2010-057A",
        "meta_epoch": "2025-12-19T05:27:56.588256",
        "meta_mean_motion": 1.00272062,
        "meta_eccentricity": 0.00104524,
        "meta_inclination": 3.2001,
        "meta_ra_of_asc_node": 69.9152,
        "meta_arg_of_pericenter": 192.5633,
        "meta_mean_anomaly": 67.6683,
        "meta_ephemeris_type": 0,
        "meta_classification_type": "U",
        "meta_norad_cat_id": 37210,
        "meta_element_set_no": 999,
        "meta_rev_at_epoch": 5548,
        "meta_bstar": 0,
        "meta_mean_motion_dot": -8.9e-07,
        "meta_mean_motion_ddot": 0,
        "tle_line1": "1 37210U 10057A   25353.22773829 -.00000089  00000+0  00000+0 0  9990",
        "tle_line2": "2 37210   3.2001  69.9152 0010452 192.5633  67.6683  1.00272062 55482"
      },
      "geometry": {
        "type": "Point",
        "coordinates": [
          110.58897975780681,
          2.112328104935057
        ]
      }
    },
    {
      "type": "Feature",
      "properties": {
        "norad_id": 37256,
        "name": "BEIDOU-2 IGSO-2 (C07)",
        "group": "beidou",
        "lat": 25.934664588424592,
        "lon": 67.99921201017209,
        "alt_km": 35716.90539822773,
        "timestamp": "2025-12-19T14:48:36.512485+00:00",
        "meta_object_name": "BEIDOU-2 IGSO-2 (C07)",
        "meta_object_id": "2010-068A",
        "meta_epoch": "2025-12-18T17:13:56.551296",
        "meta_mean_motion": 1.00284788,
        "meta_eccentricity": 0.00483763,
        "meta_inclination": 47.875,
        "meta_ra_of_asc_node": 274.0752,
        "meta_arg_of_pericenter": 216.347,
        "meta_mean_anomaly": 323.4971,
        "meta_ephemeris_type": 0,
        "meta_classification_type": "U",
        "meta_norad_cat_id": 37256,
        "meta_element_set_no": 999,
        "meta_rev_at_epoch": 5498,
        "meta_bstar": 0,
        "meta_mean_motion_dot": -2e-06,
        "meta_mean_motion_ddot": 0,
        "tle_line1": "1 37256U 10068A   25352.71801564 -.00000200  00000+0  00000+0 0  9998",
        "tle_line2": "2 37256  47.8750 274.0752 0048376 216.3470 323.4971  1.00284788 54987"
      },
      "geometry": {
        "type": "Point",
        "coordinates": [
          67.99921201017209,
          25.934664588424592
        ]
      }
    },
    {
      "type": "Feature",
      "properties": {
        "norad_id": 37384,
        "name": "BEIDOU-2 IGSO-3 (C08)",
        "group": "beidou",
        "lat": 14.10529640507904,
        "lon": 49.517140792221355,
        "alt_km": 35933.39197046703,
        "timestamp": "2025-12-19T14:48:36.512497+00:00",
        "meta_object_name": "BEIDOU-2 IGSO-3 (C08)",
        "meta_object_id": "2011-013A",
        "meta_epoch": "2025-12-18T16:17:49.029216",
        "meta_mean_motion": 1.00269421,
        "meta_eccentricity": 0.00353461,
        "meta_inclination": 62.1512,
        "meta_ra_of_asc_node": 41.8596,
        "meta_arg_of_pericenter": 187.8899,
        "meta_mean_anomaly": 209.6604,
        "meta_ephemeris_type": 0,
        "meta_classification_type": "U",
        "meta_norad_cat_id": 37384,
        "meta_element_set_no": 999,
        "meta_rev_at_epoch": 5385,
        "meta_bstar": 0,
        "meta_mean_motion_dot": -1.73e-06,
        "meta_mean_motion_ddot": 0,
        "tle_line1": "1 37384U 11013A   25352.67903969 -.00000173  00000+0  00000+0 0  9997",
        "tle_line2": "2 37384  62.1512  41.8596 0035346 187.8899 209.6604  1.00269421 53851"
      },
      "geometry": {
        "type": "Point",
        "coordinates": [
          49.517140792221355,
          14.10529640507904
        ]
      }
    },
    {
      "type": "Feature",
      "properties": {
        "norad_id": 37763,
        "name": "BEIDOU-2 IGSO-4 (C09)",
        "group": "beidou",
        "lat": -43.787973732762076,
        "lon": 30.3742056323602,
        "alt_km": 35165.45938214171,
        "timestamp": "2025-12-19T14:48:36.512509+00:00",
        "meta_object_name": "BEIDOU-2 IGSO-4 (C09)",
        "meta_object_id": "2011-038A",
        "meta_epoch": "2025-12-17T23:29:21.564384",
        "meta_mean_motion": 1.00281312,
        "meta_eccentricity": 0.01493143,
        "meta_inclination": 54.5836,
        "meta_ra_of_asc_node": 167.2999,
        "meta_arg_of_pericenter": 230.2426,
        "meta_mean_anomaly": 136.1954,
        "meta_ephemeris_type": 0,
        "meta_classification_type": "U",
        "meta_norad_cat_id": 37763,
        "meta_element_set_no": 999,
        "meta_rev_at_epoch": 5283,
        "meta_bstar": 0,
        "meta_mean_motion_dot": 6.5e-07,
        "meta_mean_motion_ddot": 0,
        "tle_line1": "1 37763U 11038A   25351.97872181  .00000065  00000+0  00000+0 0  9997",
        "tle_line2": "2 37763  54.5836 167.2999 0149314 230.2426 136.1954  1.00281312 52838"
      },
      "geometry": {
        "type": "Point",
        "coordinates": [
          30.3742056323602,
          -43.787973732762076
        ]
      }
    },
    {
      "type": "Feature",
      "properties": {
        "norad_id": 37948,
        "name": "BEIDOU-2 IGSO-5 (C10)",
        "group": "beidou",
        "lat": 35.345730763768735,
        "lon": 54.16024197712658,
        "alt_km": 35798.401153023806,
        "timestamp": "2025-12-19T14:48:36.512522+00:00",
        "meta_object_name": "BEIDOU-2 IGSO-5 (C10)",
        "meta_object_id": "2011-073A",
        "meta_epoch": "2025-12-18T16:23:51.533376",
        "meta_mean_motion": 1.00290152,
        "meta_eccentricity": 0.01099443,
        "meta_inclination": 48.0091,
        "meta_ra_of_asc_node": 273.7856,
        "meta_arg_of_pericenter": 222.3449,
        "meta_mean_anomaly": 290.7013,
        "meta_ephemeris_type": 0,
        "meta_classification_type": "U",
        "meta_norad_cat_id": 37948,
        "meta_element_set_no": 999,
        "meta_rev_at_epoch": 5132,
        "meta_bstar": 0,
        "meta_mean_motion_dot": -1.7e-06,
        "meta_mean_motion_ddot": 0,
        "tle_line1": "1 37948U 11073A   25352.68323534 -.00000170  00000+0  00000+0 0  9991",
        "tle_line2": "2 37948  48.0091 273.7856 0109944 222.3449 290.7013  1.00290152 51329"
      },
      "geometry": {
        "type": "Point",
        "coordinates": [
          54.16024197712658,
          35.345730763768735
        ]
      }
    },
    {
      "type": "Feature",
      "properties": {
        "norad_id": 38091,
        "name": "BEIDOU-2 G5 (C05)",
        "group": "beidou",
        "lat": -2.732450237549838,
        "lon": 9.564266190935633,
        "alt_km": 35766.601779085504,
        "timestamp": "2025-12-19T14:48:36.512534+00:00",
        "meta_object_name": "BEIDOU-2 G5 (C05)",
        "meta_object_id": "2012-008A",
        "meta_epoch": "2025-12-19T03:16:16.701024",
        "meta_mean_motion": 1.00268437,
        "meta_eccentricity": 0.00129619,
        "meta_inclination": 3.1246,
        "meta_ra_of_asc_node": 70.6885,
        "meta_arg_of_pericenter": 231.3225,
        "meta_mean_anomaly": 253.8349,
        "meta_ephemeris_type": 0,
        "meta_classification_type": "U",
        "meta_norad_cat_id": 38091,
        "meta_element_set_no": 999,
        "meta_rev_at_epoch": 5056,
        "meta_bstar": 0,
        "meta_mean_motion_dot": 7.9e-07,
        "meta_mean_motion_ddot": 0,
        "tle_line1": "1 38091U 12008A   25353.13630441  .00000079  00000+0  00000+0 0  9996",
        "tle_line2": "2 38091   3.1246  70.6885 0012961 231.3225 253.8349  1.00268437 50561"
      },
      "geometry": {
        "type": "Point",
        "coordinates": [
          9.564266190935633,
          -2.732450237549838
        ]
      }
    }
  ]
}